KUIPER-00252            
1 67157U 25301AA  26025.91735724  .00046717  00000+0  13248-2 0  9994
2 67157  51.8660 272.3018 0011076 246.3743 113.6080 15.35715411  7156
KUIPER-00261            
1 67158U 25301AB  26023.73956524  .00039745  00000+0  10901-2 0  9992
2 67158  51.8684 282.4808 0007136 217.2277 142.8216 15.36863797  6823
KUIPER-00265            
1 67159U 25301AC  26025.91668981 -.01774458  00000+0 -17077+0 0  9990
2 67159  51.8920 275.1200 0002811 243.7310 222.7296 14.96318044  5133
